HAIYANG-1B              
1 31113U 07010A   26187.86227365  .00000081  00000+0  46568-4 0  9991
2 31113  98.3506 168.9453 0014293 138.8846 221.3418 14.31031799  3456
GOSAT (IBUKI)           
1 33492U 09002A   26187.84300279  .00000108  00000+0  27600-4 0  9996
2 33492  98.0909 298.6798 0001165  81.5812 278.5524 14.67538068934349
HAIYANG-2A              
1 37781U 11043A   26187.84386365 -.00000103  00000+0 -64141-4 0  9997
2 37781  99.3400 190.0750 0004015  51.8244 308.3266 13.73745547749351
GOKTURK 2               
1 39030U 12073A   26187.81425527  .00000576  00000+0  91496-4 0  9996
2 39030  97.6814  24.2611 0000945  69.6135 290.5176 14.75563783727405
GPM-CORE                
1 39574U 14009C   26187.69600023  .00005787  00000+0  12730-3 0  9994
2 39574  64.9704 242.7707 0011131 259.2531 100.7357 15.44977181700820
GOKTURK 1A              
1 41875U 16073A   26187.87759282  .00000529  00000+0  11290-3 0  9995
2 41875  98.1221  82.2411 0001418  79.2761 280.8601 14.62790083511703
GOES 17                 
1 43226U 18022A   26187.84212985 -.00000168  00000+0  00000+0 0  9997
2 43226   0.9840  85.3990 0000618  57.0032 356.0886  1.00272044 30623
GOES 18                 
1 51850U 22021A   26187.76150079  .00000112  00000+0  00000+0 0  9997
2 51850   0.0184 202.6762 0000524 322.8576 256.3374  1.00271149  6789
GOES 19                 
1 60133U 24119A   26187.77372083 -.00000233  00000+0  00000+0 0  9998
2 60133   0.0333 203.4320 0000443 335.5407 309.1245  1.00272104  7161
GOSAT-GW (IBUKI GW)     
1 64694U 25141A   26187.82640988  .00000731  00000+0  13735-3 0  9993
2 64694  98.0566 124.8244 0001412  84.2116 275.9250 14.67553870 54724
